     2.100          NAVIGATION                              RINEX VERSION / TYPE
fic2rin                                 07/24/2014 00:15:55 PGM / RUN BY / DATE
                                                            END OF HEADER
16 14  7 23  2  0  0.0 -.205975491554D-03  .227373675443D-11  .000000000000D+00
     .102000000000D+03 -.738125000000D+02  .388337604391D-08  .940130778963D+00
    -.372901558876D-05  .768792652525D-02  .353343784809D-05  .515362915230D+04
     .266400000000D+06 -.204890966415D-07  .154488467997D+01  .186264514923D-06
     .988310942843D+00  .325000000000D+03  .235397562968D+00 -.801319092442D-08
    -.210008747707D-09  .100000000000D+01  .180200000000D+04  .000000000000D+00
     .240000000000D+01  .000000000000D+00 -.102445483208D-07  .102000000000D+03
     .259206000000D+06  .400000000000D+01
17 14  7 23  2  0  0.0 -.110979657620D-03 -.295585778076D-11  .000000000000D+00
     .112000000000D+03 -.781250000000D+02  .418338854064D-08  .304854397152D-01
    -.414997339249D-05  .934062106535D-02  .973232090473D-05  .515362812424D+04
     .266400000000D+06 -.689178705215D-07  .257626631416D+01  .139698386192D-06
     .969520991892D+00  .201437500000D+03 -.209829781039D+01 -.791497254752D-08
     .207508643568D-09  .100000000000D+01  .180200000000D+04  .000000000000D+00
     .340000000000D+01  .000000000000D+00 -.102445483208D-07  .112000000000D+03
     .259206000000D+06  .400000000000D+01
18 14  7 23  2  0  0.0  .333263538778D-03  .238742359215D-11  .000000000000D+00
     .640000000000D+02 -.199062500000D+02  .572059542862D-08  .157587196203D+01
    -.123865902424D-05  .154873777647D-01  .667944550514D-05  .515370733261D+04
     .266400000000D+06 -.359490513802D-06 -.166687201605D+01 -.199303030968D-06
     .925221212366D+00  .237281250000D+03 -.202173224910D+01 -.859428655796D-08
    -.330370904131D-09  .100000000000D+01  .180200000000D+04  .000000000000D+00
     .240000000000D+01  .000000000000D+00 -.111758708954D-07  .640000000000D+02
     .259206000000D+06  .400000000000D+01
19 14  7 23  2  0  0.0 -.469597987831D-03 -.204636307899D-11  .000000000000D+00
     .200000000000D+02 -.730000000000D+02  .419767485001D-08 -.797292528560D+00
    -.366941094398D-05  .105510556605D-01  .991299748421D-05  .515364025307D+04
     .266400000000D+06  .236555933952D-06  .262689042167D+01  .651925802231D-07
     .966660589134D+00  .187343750000D+03  .471302395705D+00 -.785568436364D-08
     .291083553370D-09  .100000000000D+01  .180200000000D+04  .000000000000D+00
     .240000000000D+01  .000000000000D+00 -.149011611938D-07  .200000000000D+02
     .259206000000D+06  .400000000000D+01
21 14  7 23  2  0  0.0 -.374164432287D-03 -.216004991671D-11  .000000000000D+00
     .320000000000D+02  .681250000000D+01  .529236330532D-08  .252182877128D+01
     .158324837685D-06  .215573625173D-01  .716187059879D-05  .515372121620D+04
     .266400000000D+06  .134110450745D-06 -.271183919405D+01 -.284984707832D-06
     .932805319086D+00  .225781250000D+03 -.200714991972D+01 -.795747431789D-08
     .452161691492D-09  .100000000000D+01  .180200000000D+04  .000000000000D+00
     .240000000000D+01  .000000000000D+00 -.111758708954D-07  .320000000000D+02
     .259206000000D+06  .400000000000D+01
22 14  7 23  2  0  0.0  .252490397543D-03  .306954461848D-11  .000000000000D+00
     .520000000000D+02 -.131875000000D+02  .588774524822D-08  .101651200965D+01
    -.620260834694D-06  .738429906778D-02  .642985105515D-05  .515371873665D+04
     .266400000000D+06 -.875443220139D-07 -.166509265562D+01  .113621354103D-06
     .923003585090D+00  .238687500000D+03 -.205024210426D+01 -.871786313399D-08
    -.356800576462D-09  .100000000000D+01  .180200000000D+04  .000000000000D+00
     .240000000000D+01  .000000000000D+00 -.172294676304D-07  .520000000000D+02
     .259206000000D+06  .400000000000D+01
23 14  7 23  2  0  0.0 -.386731699109D-04 -.295585778076D-11  .000000000000D+00
     .800000000000D+02  .585625000000D+02  .448304387963D-08 -.118031748953D+01
     .288709998131D-05  .964237854350D-02  .104960054159D-04  .515376226044D+04
     .266400000000D+06  .160187482834D-06 -.599745691667D+00 -.147148966789D-06
     .951309522637D+00  .171093750000D+03 -.275531757580D+01 -.786818488434D-08
    -.335013954676D-09  .100000000000D+01  .180200000000D+04  .000000000000D+00
     .240000000000D+01  .000000000000D+00 -.200234353542D-07  .800000000000D+02
     .259206000000D+06  .400000000000D+01
24 14  7 23  2  0  0.0 -.322582200170D-04 -.568434188608D-12  .000000000000D+00
     .290000000000D+02  .947187500000D+02  .446518599292D-08 -.193714400996D+01
     .505149364471D-05  .208981102332D-02  .452436506748D-05  .515372296906D+04
     .266400000000D+06 -.670552253723D-07  .426716011509D+00  .931322574615D-08
     .956607375131D+00  .291375000000D+03  .316321179155D+00 -.814462497061D-08
     .128576784311D-09  .100000000000D+01  .180200000000D+04  .000000000000D+00
     .240000000000D+01  .000000000000D+00  .279396772385D-08  .290000000000D+02
     .259206000000D+06  .400000000000D+01
25 14  7 23  2  0  0.0  .245580449700D-04 -.341060513165D-12  .000000000000D+00
     .103000000000D+03 -.614062500000D+02  .416195907659D-08  .230009668744D+01
    -.319257378578D-05  .368850131053D-02  .327825546265D-05  .515358002663D+04
     .266400000000D+06 -.521540641785D-07  .148320435257D+01 -.577419996262D-07
     .976403891256D+00  .323375000000D+03  .723806917463D+00 -.811319509000D-08
    -.907180644858D-10  .100000000000D+01  .180200000000D+04  .000000000000D+00
     .240000000000D+01  .000000000000D+00  .512227416039D-08  .103000000000D+03
     .259206000000D+06  .400000000000D+01
26 14  7 23  2  0  0.0  .547291710973D-05 -.127329258248D-10  .000000000000D+00
     .800000000000D+02  .640625000000D+02  .399230915284D-08 -.124399794926D+01
     .354088842869D-05  .212232285412D-01  .985711812973D-05  .515369859886D+04
     .266400000000D+06  .100582838058D-06 -.510126045689D+00  .551342964172D-06
     .974538761405D+00  .198593750000D+03  .128966620526D+01 -.778603860547D-08
    -.387158983869D-09  .100000000000D+01  .180200000000D+04  .000000000000D+00
     .240000000000D+01  .000000000000D+00 -.605359673500D-08  .800000000000D+02
     .259206000000D+06  .400000000000D+01
28 14  7 23  2  0  0.0  .371618196368D-03  .284217094304D-11  .000000000000D+00
     .190000000000D+02 -.615937500000D+02  .408124142866D-08  .835773587999D+00
    -.337883830070D-05  .191848702962D-01  .356510281563D-05  .515367481613D+04
     .266400000000D+06 -.234693288803D-06  .155060345935D+01 -.132247805595D-06
     .986849578383D+00  .328656250000D+03 -.171138375924D+01 -.834284751309D-08
    -.232509684962D-09  .100000000000D+01  .180200000000D+04  .000000000000D+00
     .240000000000D+01  .000000000000D+00 -.107102096081D-07  .190000000000D+02
     .259206000000D+06  .400000000000D+01
29 14  7 23  2  0  0.0  .548572279513D-03  .272848410532D-11  .000000000000D+00
     .500000000000D+02 -.669062500000D+02  .405695470273D-08  .266694149942D+01
    -.369921326637D-05  .134987372439D-02  .100042670965D-04  .515367541313D+04
     .266400000000D+06 -.111758708954D-07  .258537364922D+01  .000000000000D+00
     .970279906978D+00  .189312500000D+03 -.788788224424D+00 -.771603568957D-08
     .228938107620D-09  .100000000000D+01  .180200000000D+04  .000000000000D+00
     .240000000000D+01  .000000000000D+00 -.977888703346D-08  .500000000000D+02
     .259206000000D+06  .400000000000D+01
30 14  7 23  2  0  0.0 -.369921326637D-04 -.613908923697D-11  .000000000000D+00
     .370000000000D+02  .926250000000D+02  .458519099161D-08 -.270188179679D+01
     .479631125927D-05  .931106507778D-03  .431388616562D-05  .515368058777D+04
     .266400000000D+06 -.447034835815D-07  .515977264501D+00 -.186264514923D-08
     .958829489177D+00  .294750000000D+03  .292019090981D+01 -.827070165078D-08
     .151434879299D-09  .100000000000D+01  .180200000000D+04  .000000000000D+00
     .240000000000D+01  .000000000000D+00  .325962901115D-08  .370000000000D+02
     .259206000000D+06  .400000000000D+01
31 14  7 23  2  0  0.0  .333315692842D-03 -.227373675443D-12  .000000000000D+00
     .910000000000D+02  .932812500000D+02  .410267089271D-08 -.282724470954D+01
     .483356416225D-05  .795943173580D-02  .410154461861D-05  .515359038925D+04
     .266400000000D+06  .130385160446D-07  .468706156453D+00  .651925802231D-07
     .978187068435D+00  .312468750000D+03 -.635500275572D+00 -.796318884164D-08
     .121076471892D-09  .100000000000D+01  .180200000000D+04  .000000000000D+00
     .240000000000D+01  .000000000000D+00 -.130385160446D-07  .910000000000D+02
     .259206000000D+06  .400000000000D+01
32 14  7 23  2  0  0.0 -.379378441721D-03  .841282599140D-11  .000000000000D+00
     .280000000000D+02 -.136875000000D+02  .512949937852D-08 -.223330119528D+01
    -.813975930214D-06  .113858446712D-01  .700913369656D-05  .515368865204D+04
     .266400000000D+06 -.227242708206D-06 -.157148699675D+01 -.244006514549D-06
     .947128956271D+00  .235312500000D+03 -.128092374099D+00 -.820855620503D-08
    -.394659296287D-09  .100000000000D+01  .180200000000D+04  .000000000000D+00
     .240000000000D+01  .000000000000D+00 -.325962901115D-08  .280000000000D+02
     .259206000000D+06  .400000000000D+01
12 14  7 23  1 59 44.0  .219886656851D-03  .250111042988D-11  .000000000000D+00
     .300000000000D+01 -.654687500000D+02  .384015995808D-08  .305490532157D+01
    -.340305268764D-05  .512102502398D-02  .332854688168D-05  .515358485222D+04
     .266384000000D+06 -.409781932831D-07  .152629972773D+01 -.353902578354D-07
     .987717647639D+00  .328968750000D+03  .487073307987D+00 -.790211486909D-08
    -.900037490174D-10  .100000000000D+01  .180200000000D+04  .000000000000D+00
     .240000000000D+01  .000000000000D+00 -.121071934700D-07  .300000000000D+01
     .262986000000D+06  .400000000000D+01
